GPS BIIR-2  (PRN 13)    
1 24876U 97035A   26060.00984234  .00000020  00000+0  00000+0 0  9995
2 24876  55.9334 102.8040 0097856  56.2915 304.7159  2.00563922209780
GPS BIIR-5  (PRN 22)    
1 26407U 00040A   26059.84130443  .00000009  00000+0  00000+0 0  9999
2 26407  54.8763 219.4631 0122784 302.5190 229.8849  2.00568803187778
GPS BIIR-8  (PRN 16)    
1 27663U 03005A   26060.42736949  .00000002  00000+0  00000+0 0  9990
2 27663  54.9080 219.2478 0148736  52.6971 318.8246  2.00566372169159
GPS BIIR-11 (PRN 19)    
1 28190U 04009A   26060.37363995  .00000005  00000+0  00000+0 0  9995
2 28190  54.9186 280.0421 0110828 168.9880 319.7388  2.00558119160784
GPS BIIR-13 (PRN 02)    
1 28474U 04045A   26060.35727227 -.00000088  00000+0  00000+0 0  9992
2 28474  55.1965 329.2420 0170887 312.7031 227.4565  2.00573160156263
GPS BIIRM-1 (PRN 17)    
1 28874U 05038A   26060.35549066  .00000009  00000+0  00000+0 0  9994
2 28874  54.9654 277.5282 0128882 295.2964 203.9501  2.00573138149679
GPS BIIRM-2 (PRN 31)    
1 29486U 06042A   26060.32185889 -.00000026  00000+0  00000+0 0  9996
2 29486  54.6984 155.6224 0106807  52.8668 319.0585  2.00575456142236
GPS BIIRM-3 (PRN 12)    
1 29601U 06052A   26059.72354957  .00000010  00000+0  00000+0 0  9994
2 29601  54.9584 218.3028 0087934  89.3093 271.6592  2.00551333141237
GPS BIIRM-4 (PRN 15)    
1 32260U 07047A   26060.03053530  .00000012  00000+0  00000+0 0  9995
2 32260  54.0129  84.5227 0163578  85.9294 276.0062  2.00560826134641
GPS BIIRM-5 (PRN 29)    
1 32384U 07062A   26060.09338891  .00000011  00000+0  00000+0 0  9990
2 32384  55.1174 278.4968 0032837 160.6293  12.9281  2.00553256133344
GPS BIIRM-6 (PRN 07)    
1 32711U 08012A   26059.45034167 -.00000031  00000+0  00000+0 0  9990
2 32711  54.4822 154.2701 0206744 246.1169 111.7145  2.00568968131574
GPS BIIRM-8 (PRN 05)    
1 35752U 09043A   26060.07464518 -.00000069  00000+0  00000+0 0  9991
2 35752  56.1461  31.6985 0051641  80.7088  26.1118  2.00560547121199
GPS BIIF-1  (PRN 25)    
1 36585U 10022A   26059.84518559  .00000000  00000+0  00000+0 0  9997
2 36585  54.2895 212.9243 0127362  65.8580 352.0725  2.00557011115426
GPS BIIF-3  (PRN 24)    
1 38833U 12053A   26060.12692792 -.00000023  00000+0  00000+0 0  9992
2 38833  53.5655 148.0278 0176907  64.7622 297.0835  2.00565715 97273
GPS BIIF-4  (PRN 27)    
1 39166U 13023A   26059.99178260  .00000017  00000+0  00000+0 0  9994
2 39166  54.5885 273.3798 0141528  49.8622 311.4171  2.00564138 93710
GPS BIIF-5  (PRN 30)    
1 39533U 14008A   26059.99006589 -.00000028  00000+0  00000+0 0  9993
2 39533  53.6376 153.7343 0082182 228.1724 131.1354  2.00552830 87512
GPS BIIF-6  (PRN 06)    
1 39741U 14026A   26060.26839326 -.00000096  00000+0  00000+0 0  9994
2 39741  56.5480 335.7218 0039909 324.3215  35.4388  2.00568795 86370
GPS BIIF-7  (PRN 09)    
1 40105U 14045A   26059.35845854  .00000016  00000+0  00000+0 0  9993
2 40105  55.2783  92.7996 0031587 120.5582 239.8250  2.00551177 83896
GPS BIIF-8  (PRN 03)    
1 40294U 14068A   26060.23406430 -.00000062  00000+0  00000+0 0  9991
2 40294  56.9172  35.1139 0062653  68.0452 292.6136  2.00569484 83042
GPS BIIF-9  (PRN 26)    
1 40534U 15013A   26060.36526662 -.00000012  00000+0  00000+0 0  9998
2 40534  53.1869 208.6351 0108721  39.7688 320.9703  2.00557717 79661
GPS BIIF-10 (PRN 08)    
1 40730U 15033A   26060.52586451  .00000011  00000+0  00000+0 0  9996
2 40730  54.0667 271.5237 0114429  28.9222 331.7504  2.00561672 77834
GPS BIIF-11 (PRN 10)    
1 41019U 15062A   26060.08613942 -.00000061  00000+0  00000+0 0  9992
2 41019  56.8906  34.9758 0111464 231.4723 127.5197  2.00567016 75669
GPS BIIF-12 (PRN 32)    
1 41328U 16007A   26060.17136941  .00000020  00000+0  00000+0 0  9998
2 41328  55.4534  93.7411 0095351 245.9160 113.1547  2.00556836 73671
GPS BIII-1  (PRN 04)    
1 43873U 18109A   26060.25145834  .00000021  00000+0  00000+0 0  9991
2 43873  55.6128  96.4437 0037866 198.2214 112.1971  2.00556460 52900
GPS BIII-2  (PRN 18)    
1 44506U 19056A   26060.19755562 -.00000096  00000+0  00000+0 0  9998
2 44506  55.6862 335.4369 0058016 198.2399 333.4311  2.00568051 47902
GPS BIII-3  (PRN 23)    
1 45854U 20041A   26060.27967270 -.00000067  00000+0  00000+0 0  9999
2 45854  56.6039  33.1302 0061323 205.2440 327.9609  2.00560506 41871
GPS BIII-4  (PRN 14)    
1 46826U 20078A   26059.81602991  .00000003  00000+0  00000+0 0  9992
2 46826  54.0030 215.1712 0068048 204.2108 327.3641  2.00565486 39332
GPS BIII-5  (PRN 11)    
1 48859U 21054A   26059.83435660 -.00000098  00000+0  00000+0 0  9999
2 48859  55.2227 336.8175 0023933 232.1967 136.7560  2.00575560 34580
GPS BIII-6  (PRN 28)    
1 55268U 23009A   26059.76489831 -.00000028  00000+0  00000+0 0  9997
2 55268  55.1093 152.7809 0004758 333.1698  25.1517  2.00549258 23067
GPS BIII-7  (PRN 01)    
1 62339U 24242A   26059.41642148 -.00000100  00000+0  00000+0 0  9999
2 62339  54.8934 338.5934 0015681 355.9356 192.4850  2.00569355  9070
GPS BIII-8  (PRN 21)    
1 64202U 25116A   26060.39557933 -.00000066  00000+0  00000+0 0  9998
2 64202  55.1654  35.4679 0008434 324.7400  36.5418  2.00553169  5716
